{
  "type": "FeatureCollection",
  "features": [
    {
      "type": "Feature",
      "properties": {
        "norad_id": 66723,
        "name": "FLOCK 4H-20",
        "group": "last-30-days",
        "lat": -48.30803011565133,
        "lon": -122.61826804227512,
        "alt_km": 516.8557543115348,
        "timestamp": "2025-12-20T03:42:46.119940+00:00",
        "meta_object_name": "FLOCK 4H-20",
        "meta_object_id": "2025-276BK",
        "meta_epoch": "2025-12-19T20:00:01.999008",
        "meta_mean_motion": 15.18288363,
        "meta_eccentricity": 0.0002696,
        "meta_inclination": 97.4436,
        "meta_ra_of_asc_node": 65.5061,
        "meta_arg_of_pericenter": 178.5166,
        "meta_mean_anomaly": 94.9542,
        "meta_ephemeris_type": 0,
        "meta_classification_type": "U",
        "meta_norad_cat_id": 66723,
        "meta_element_set_no": 999,
        "meta_rev_at_epoch": 130,
        "meta_bstar": -0.0024948,
        "meta_mean_motion_dot": -0.00050821,
        "meta_mean_motion_ddot": 0,
        "tle_line1": "1 66723U 25276BK  25353.83335647 -.00050821  00000+0 -24948-2 0  9999",
        "tle_line2": "2 66723  97.4436  65.5061 0002696 178.5166  94.9542 15.18288363  1301"
      },
      "geometry": {
        "type": "Point",
        "coordinates": [
          -122.61826804227512,
          -48.30803011565133
        ]
      }
    },
    {
      "type": "Feature",
      "properties": {
        "norad_id": 66724,
        "name": "FLOCK 4H-21",
        "group": "last-30-days",
        "lat": -50.63602138039307,
        "lon": -123.35569763208979,
        "alt_km": 517.0143084265801,
        "timestamp": "2025-12-20T03:42:46.119952+00:00",
        "meta_object_name": "FLOCK 4H-21",
        "meta_object_id": "2025-276BL",
        "meta_epoch": "2025-12-19T20:00:01.999008",
        "meta_mean_motion": 15.18350293,
        "meta_eccentricity": 0.0002353,
        "meta_inclination": 97.4401,
        "meta_ra_of_asc_node": 65.4943,
        "meta_arg_of_pericenter": 175.2619,
        "meta_mean_anomaly": 100.5181,
        "meta_ephemeris_type": 0,
        "meta_classification_type": "U",
        "meta_norad_cat_id": 66724,
        "meta_element_set_no": 999,
        "meta_rev_at_epoch": 262,
        "meta_bstar": -0.0024751,
        "meta_mean_motion_dot": -0.00050512,
        "meta_mean_motion_ddot": 0,
        "tle_line1": "1 66724U 25276BL  25353.83335647 -.00050512  00000+0 -24751-2 0  9999",
        "tle_line2": "2 66724  97.4401  65.4943 0002353 175.2619 100.5181 15.18350293  2620"
      },
      "geometry": {
        "type": "Point",
        "coordinates": [
          -123.35569763208979,
          -50.63602138039307
        ]
      }
    },
    {
      "type": "Feature",
      "properties": {
        "norad_id": 66725,
        "name": "FLOCK 4H-22",
        "group": "last-30-days",
        "lat": 13.224318084166905,
        "lon": -112.46137265423175,
        "alt_km": 515.5674280370677,
        "timestamp": "2025-12-20T03:42:46.119962+00:00",
        "meta_object_name": "FLOCK 4H-22",
        "meta_object_id": "2025-276BM",
        "meta_epoch": "2025-12-19T20:00:01.999008",
        "meta_mean_motion": 15.17487527,
        "meta_eccentricity": 0.0001412,
        "meta_inclination": 97.439,
        "meta_ra_of_asc_node": 65.4635,
        "meta_arg_of_pericenter": 315.3983,
        "meta_mean_anomaly": 256.8039,
        "meta_ephemeris_type": 0,
        "meta_classification_type": "U",
        "meta_norad_cat_id": 66725,
        "meta_element_set_no": 999,
        "meta_rev_at_epoch": 146,
        "meta_bstar": -0.0025658,
        "meta_mean_motion_dot": -0.00051075,
        "meta_mean_motion_ddot": 0,
        "tle_line1": "1 66725U 25276BM  25353.83335647 -.00051075  00000+0 -25658-2 0  9992",
        "tle_line2": "2 66725  97.4390  65.4635 0001412 315.3983 256.8039 15.17487527  1460"
      },
      "geometry": {
        "type": "Point",
        "coordinates": [
          -112.46137265423175,
          13.224318084166905
        ]
      }
    },
    {
      "type": "Feature",
      "properties": {
        "norad_id": 66726,
        "name": "FLOCK 4H-23",
        "group": "last-30-days",
        "lat": 30.052180467471,
        "lon": -109.86751403384113,
        "alt_km": 513.4350812032326,
        "timestamp": "2025-12-20T03:42:46.119972+00:00",
        "meta_object_name": "FLOCK 4H-23",
        "meta_object_id": "2025-276BN",
        "meta_epoch": "2025-12-19T20:00:01.999008",
        "meta_mean_motion": 15.17226749,
        "meta_eccentricity": 0.0003176,
        "meta_inclination": 97.4459,
        "meta_ra_of_asc_node": 65.4772,
        "meta_arg_of_pericenter": 255.6437,
        "meta_mean_anomaly": 299.9072,
        "meta_ephemeris_type": 0,
        "meta_classification_type": "U",
        "meta_norad_cat_id": 66726,
        "meta_element_set_no": 999,
        "meta_rev_at_epoch": 262,
        "meta_bstar": -0.0027013,
        "meta_mean_motion_dot": -0.0005336,
        "meta_mean_motion_ddot": 0,
        "tle_line1": "1 66726U 25276BN  25353.83335647 -.00053360  00000+0 -27013-2 0  9999",
        "tle_line2": "2 66726  97.4459  65.4772 0003176 255.6437 299.9072 15.17226749  2629"
      },
      "geometry": {
        "type": "Point",
        "coordinates": [
          -109.86751403384113,
          30.052180467471
        ]
      }
    },
    {
      "type": "Feature",
      "properties": {
        "norad_id": 66727,
        "name": "FLOCK 4H-24",
        "group": "last-30-days",
        "lat": 22.005408702049085,
        "lon": -111.17114227132004,
        "alt_km": 514.6587431543667,
        "timestamp": "2025-12-20T03:42:46.119984+00:00",
        "meta_object_name": "FLOCK 4H-24",
        "meta_object_id": "2025-276BP",
        "meta_epoch": "2025-12-19T20:00:01.999008",
        "meta_mean_motion": 15.17329937,
        "meta_eccentricity": 0.0002546,
        "meta_inclination": 97.4457,
        "meta_ra_of_asc_node": 65.4834,
        "meta_arg_of_pericenter": 276.2733,
        "meta_mean_anomaly": 287.2716,
        "meta_ephemeris_type": 0,
        "meta_classification_type": "U",
        "meta_norad_cat_id": 66727,
        "meta_element_set_no": 999,
        "meta_rev_at_epoch": 262,
        "meta_bstar": -0.002583,
        "meta_mean_motion_dot": -0.0005119,
        "meta_mean_motion_ddot": 0,
        "tle_line1": "1 66727U 25276BP  25353.83335647 -.00051190  00000+0 -25830-2 0  9994",
        "tle_line2": "2 66727  97.4457  65.4834 0002546 276.2733 287.2716 15.17329937  2623"
      },
      "geometry": {
        "type": "Point",
        "coordinates": [
          -111.17114227132004,
          22.005408702049085
        ]
      }
    },
    {
      "type": "Feature",
      "properties": {
        "norad_id": 66728,
        "name": "FLOCK 4H-25",
        "group": "last-30-days",
        "lat": -45.66583379476476,
        "lon": -121.87453160146238,
        "alt_km": 518.5207610584939,
        "timestamp": "2025-12-20T03:42:46.119995+00:00",
        "meta_object_name": "FLOCK 4H-25",
        "meta_object_id": "2025-276BQ",
        "meta_epoch": "2025-12-19T20:00:01.999008",
        "meta_mean_motion": 15.18209801,
        "meta_eccentricity": 0.0001707,
        "meta_inclination": 97.441,
        "meta_ra_of_asc_node": 65.4969,
        "meta_arg_of_pericenter": 119.3882,
        "meta_mean_anomaly": 151.4832,
        "meta_ephemeris_type": 0,
        "meta_classification_type": "U",
        "meta_norad_cat_id": 66728,
        "meta_element_set_no": 999,
        "meta_rev_at_epoch": 130,
        "meta_bstar": -0.0025232,
        "meta_mean_motion_dot": -0.00051276,
        "meta_mean_motion_ddot": 0,
        "tle_line1": "1 66728U 25276BQ  25353.83335647 -.00051276  00000+0 -25232-2 0  9996",
        "tle_line2": "2 66728  97.4410  65.4969 0001707 119.3882 151.4832 15.18209801  1305"
      },
      "geometry": {
        "type": "Point",
        "coordinates": [
          -121.87453160146238,
          -45.66583379476476
        ]
      }
    },
    {
      "type": "Feature",
      "properties": {
        "norad_id": 66729,
        "name": "FLOCK 4H-26",
        "group": "last-30-days",
        "lat": 37.40397015563995,
        "lon": -108.48801936622752,
        "alt_km": 513.4468065172223,
        "timestamp": "2025-12-20T03:42:46.120005+00:00",
        "meta_object_name": "FLOCK 4H-26",
        "meta_object_id": "2025-276BR",
        "meta_epoch": "2025-12-19T20:00:01.999008",
        "meta_mean_motion": 15.17154478,
        "meta_eccentricity": 0.0003391,
        "meta_inclination": 97.441,
        "meta_ra_of_asc_node": 65.4608,
        "meta_arg_of_pericenter": 274.2187,
        "meta_mean_anomaly": 273.977,
        "meta_ephemeris_type": 0,
        "meta_classification_type": "U",
        "meta_norad_cat_id": 66729,
        "meta_element_set_no": 999,
        "meta_rev_at_epoch": 130,
        "meta_bstar": -0.0027089,
        "meta_mean_motion_dot": -0.00053402,
        "meta_mean_motion_ddot": 0,
        "tle_line1": "1 66729U 25276BR  25353.83335647 -.00053402  00000+0 -27089-2 0  9992",
        "tle_line2": "2 66729  97.4410  65.4608 0003391 274.2187 273.9770 15.17154478  1305"
      },
      "geometry": {
        "type": "Point",
        "coordinates": [
          -108.48801936622752,
          37.40397015563995
        ]
      }
    }
  ]
}